IRIDIUM 33 DEB          
1 34143U 97051DW  17345.80705123  .00002182  00000-0  44820-3 0  9997
2 34143  86.3949 193.4666 0006538 206.3756 276.2798 14.60229006464647
